[{"OBJECT_NAME":"STARLINK-5463","OBJECT_ID":"2023-021AX","EPOCH":"2026-03-09T16:02:50.039808","MEAN_MOTION":14.98331273,"ECCENTRICITY":0.00033444,"INCLINATION":70.0007,"RA_OF_ASC_NODE":164.4187,"ARG_OF_PERICENTER":270.3234,"MEAN_ANOMALY":89.7542,"EPHEMERIS_TYPE":0,"CLASSIFICATION_TYPE":"U","NORAD_CAT_ID":55673,"ELEMENT_SET_NO":999,"REV_AT_EPOCH":16928,"BSTAR":-6.0334792e-5,"MEAN_MOTION_DOT":-8.13e-6,"MEAN_MOTION_DDOT":0},{"OBJECT_NAME":"FENGYUN 1C DEB","OBJECT_ID":"1999-025ECZ","EPOCH":"2026-03-06T15:56:09.405600","MEAN_MOTION":14.4183664,"ECCENTRICITY":0.02789031,"INCLINATION":98.8006,"RA_OF_ASC_NODE":17.7433,"ARG_OF_PERICENTER":114.6839,"MEAN_ANOMALY":248.3662,"EPHEMERIS_TYPE":0,"CLASSIFICATION_TYPE":"U","NORAD_CAT_ID":37017,"ELEMENT_SET_NO":999,"REV_AT_EPOCH":62370,"BSTAR":0.0010503478,"MEAN_MOTION_DOT":5.43e-5,"MEAN_MOTION_DDOT":0}]
